ONEWEB-0080             
1 45426U 20020C   22087.39149425 -.00000330  00000+0 -96712-3 0  9996
2 45426  87.8889 327.6240 0001778  71.6185 288.5136 13.11418922100620
ONEWEB-0090             
1 45427U 20020D   22087.40721037  .00000216  00000+0  57291-3 0  9994
2 45427  87.8898 327.6615 0001836  79.9686 280.1649 13.11419070100597
ONEWEB-0061             
1 45428U 20020E   22087.20973993  .00000188  00000+0  49406-3 0  9990
2 45428  87.8888 327.6463 0001999  88.0121 272.1236 13.11414291100529
ONEWEB-0081             
1 45429U 20020F   22087.42067910  .00000670  00000+0  18553-2 0  9992
2 45429  87.8900 327.6013 0001966  91.4165 268.7188 13.11418251100668
ONEWEB-0069             
1 45430U 20020G   22087.40945732  .00000282  00000+0  75896-3 0  9992
2 45430  87.8892 327.6354 0001973  81.3508 278.7843 13.11418576100596
ONEWEB-0031             
1 45431U 20020H   22087.38251485 -.00000424  00000+0 -12330-2 0  9998
2 45431  87.8886 327.6274 0001640  81.0328 279.0985 13.11417172100579
ONEWEB-0027             
1 45432U 20020J   22087.35679287  .00000085  00000+0  18684-3 0  9990
2 45432  87.9073 312.4439 0001847  76.9962 283.1375 13.17647876103316
ONEWEB-0064             
1 45433U 20020K   22087.38027013 -.00000578  00000+0 -16661-2 0  9999
2 45433  87.8891 327.6492 0001965  67.4052 292.7284 13.11416181100608
ONEWEB-0018             
1 45434U 20020L   22087.41170098  .00000424  00000+0  11598-2 0  9998
2 45434  87.8888 327.6153 0001956  85.0412 275.0939 13.11418683100559
ONEWEB-0083             
1 45435U 20020M   22087.40047274  .00000006  00000+0 -18736-4 0  9997
2 45435  87.8891 327.6262 0001661  83.6572 276.4745 13.11419431100595
ONEWEB-0095             
1 45436U 20020N   22087.38572761  .00009141  00000+0  25697-1 0  9998
2 45436  87.8889 327.6287 0001513  77.8024 282.3273 13.11505579100594
ONEWEB-0092             
1 45437U 20020P   22087.36008415  .00000349  00000+0  94756-3 0  9992
2 45437  87.8898 327.6078 0001425  89.2816 270.8476 13.11420800100704
ONEWEB-0085             
1 45438U 20020Q   22087.39374837 -.00000295  00000+0 -86779-3 0  9998
2 45438  87.8891 327.6460 0002059  83.3095 276.8267 13.11417727100596
ONEWEB-0096             
1 45439U 20020R   22087.40271700  .00000121  00000+0  30603-3 0  9997
2 45439  87.8890 327.6279 0001976  88.3295 271.8059 13.11420127100589
ONEWEB-0037             
1 45440U 20020S   22087.38701145 -.00000358  00000+0 -10463-2 0  9992
2 45440  87.8886 327.6357 0001554  87.5875 272.5431 13.11418637100619
ONEWEB-0042             
1 45441U 20020T   22087.36907648 -.00000027  00000+0 -11117-3 0  9998
2 45441  87.8886 327.6373 0001655  90.2624 269.8694 13.11417832100585
ONEWEB-0098             
1 45442U 20020U   22087.38924782 -.00000563  00000+0 -16233-2 0  9997
2 45442  87.8888 327.6305 0002065  82.4077 277.7285 13.11417179100560
ONEWEB-0055             
1 45443U 20020V   22087.37354503 -.00000220  00000+0 -65760-3 0  9995
2 45443  87.8896 327.6097 0001992  81.5693 278.5660 13.11414622100533
ONEWEB-0093             
1 45444U 20020W   22087.42517413  .00000594  00000+0  16412-2 0  9994
2 45444  87.8888 327.6298 0002015  82.0922 278.0435 13.11416223100608
ONEWEB-0029             
1 45445U 20020X   22087.37130031 -.00000152  00000+0 -46439-3 0  9991
2 45445  87.8889 327.6247 0001887  93.2852 266.8491 13.11414572100574
ONEWEB-0068             
1 45446U 20020Y   22087.41731555  .00000554  00000+0  15272-2 0  9999
2 45446  87.8889 327.6288 0002171  82.7426 277.3949 13.11417896100529
ONEWEB-0046             
1 45447U 20020Z   22087.41394513  .00000446  00000+0  12228-2 0  9997
2 45447  87.8891 327.6377 0001620  84.6144 275.5169 13.11418797100534
ONEWEB-0063             
1 45448U 20020AA  22087.36681602  .00000060  00000+0  13254-3 0  9993
2 45448  87.8882 327.6381 0001429  84.9529 275.1762 13.11414030100617
ONEWEB-0019             
1 45449U 20020AB  22087.41843569  .00000554  00000+0  15267-2 0  9995
2 45449  87.8893 327.6181 0001692  76.4485 283.6832 13.11418043100460
ONEWEB-0094             
1 45450U 20020AC  22087.35831155  .00000015  00000+0  42018-5 0  9997
2 45450  87.9053 312.3445 0001852  78.7445 281.3894 13.17653800103266
ONEWEB-0087             
1 45451U 20020AD  22087.37580047 -.00000261  00000+0 -77233-3 0  9991
2 45451  87.8895 327.6618 0001970  92.6248 267.5105 13.11417104100502
ONEWEB-0082             
1 45452U 20020AE  22087.37802758 -.00000405  00000+0 -11788-2 0  9990
2 45452  87.8887 327.6015 0002254  86.6785 273.4601 13.11414222100594
ONEWEB-0050             
1 45453U 20020AF  22087.88504391  .00001516  00000+0  13527-3 0  9995
2 45453  87.5355 266.2246 0027546 140.1343 220.1918 14.94962475110235
ONEWEB-0034             
1 45454U 20020AG  22087.39598105 -.00000376  00000+0 -10962-2 0  9992
2 45454  87.8887 327.6200 0001840  87.8016 272.3323 13.11417703100510
ONEWEB-0060             
1 45455U 20020AH  22087.40496383  .00000113  00000+0  28334-3 0  9990
2 45455  87.8892 327.6245 0001689  84.1104 276.0217 13.11419261100474
ONEWEB-0086             
1 45456U 20020AJ  22087.42292342  .00000651  00000+0  17999-2 0  9993
2 45456  87.8888 327.6144 0001969  85.3677 274.7676 13.11417392100531
ONEWEB-0088             
1 45457U 20020AK  22087.39823558 -.00000187  00000+0 -56322-3 0  9999
2 45457  87.8887 327.6361 0001711  89.7875 270.3449 13.11420223100464
YAOGAN-30 R             
1 45460U 20021A   22087.60703207  .00001043  00000+0  10823-3 0  9992
2 45460  34.9971 145.8562 0005539 310.7473  49.2751 14.90255324109601
YAOGAN-30 S             
1 45461U 20021B   22087.58439564  .00001064  00000+0  11032-3 0  9998
2 45461  34.9963 145.6500 0002961 216.4542 143.5960 14.90259626109573
YAOGAN-30 T             
1 45462U 20021C   22087.82957816  .00001033  00000+0  10725-3 0  9995
2 45462  34.9982 142.0697 0001807  17.2556 342.8210 14.90253674109639
AEHF-6 (USA 298)        
1 45465U 20022B   22087.81640631 -.00000327  00000+0  00000+0 0  9999
2 45465   6.1349 303.5162 0049557   2.0859 312.2354  1.00272473  7556
NOOR-1                  
1 45529U 20024A   22087.18858836  .00371639  00000+0  12859-2 0  9994
2 45529  59.7937 205.5191 0005659 347.8538  74.3390 15.88166685109553
STARLINK-1329           
1 45531U 20025A   22087.83921219  .00001523  00000+0  12112-3 0  9991
2 45531  53.0552  99.3402 0001491  63.1021 297.0120 15.06397861107774
STARLINK-1338           
1 45532U 20025B   22087.31948813  .00001817  00000+0  14082-3 0  9998
2 45532  53.0544 101.6700 0001389  79.7530 280.3615 15.06405971107695
STARLINK-1339           
1 45533U 20025C   22087.39703988  .00043032  00000+0  11294-2 0  9995
2 45533  53.0474  78.0453 0005289  62.9044 297.2498 15.38227902108033
STARLINK-1341           
1 45534U 20025D   22087.72864357 -.00000005  00000+0  18546-4 0  9994
2 45534  53.0536  99.8303 0001781  53.4410 306.6743 15.06393661107750
STARLINK-1350           
1 45535U 20025E   22087.74706077  .00001445  00000+0  11585-3 0  9994
2 45535  53.0522  99.7520 0001489  55.8550 304.2580 15.06401261107762
STARLINK-1352           
1 45536U 20025F   22087.75074778  .00001725  00000+0  13470-3 0  9998
2 45536  53.0541  99.7314 0001683  55.1750 304.9397 15.06400376107754
STARLINK-1353           
1 45537U 20025G   22087.53873482  .00029577  00000+0  13943-2 0  9993
2 45537  53.0002  64.1925 0003348  89.6857 270.4521 15.19272332108212
STARLINK-1362           
1 45538U 20025H   22087.84289043  .00001776  00000+0  13808-3 0  9994
2 45538  53.0543  99.3194 0001662  63.4092 296.7067 15.06404438107775
STARLINK-1367           
1 45539U 20025J   22087.86286037  .00001555  00000+0  13543-4 0  9999
2 45539  53.0472 297.8219 0009071 284.1515  75.8496 15.76749772109419
STARLINK-1368           
1 45540U 20025K   22087.75444317  .00000587  00000+0  58299-4 0  9997
2 45540  53.0550  99.7088 0001757  53.8147 306.3005 15.06394088107758
STARLINK-1369           
1 45541U 20025L   22087.75811416  .00001247  00000+0  10259-3 0  9993
2 45541  53.0536  99.6901 0001657  53.1569 306.9572 15.06410016107751
STARLINK-1371           
1 45542U 20025M   22087.85764054  .00001971  00000+0  15120-3 0  9996
2 45542  53.0537  99.2583 0001767  59.6820 300.4343 15.06400748107776
STARLINK-1372           
1 45543U 20025N   22087.76180333  .00001200  00000+0  99450-4 0  9993
2 45543  53.0553  99.6826 0001724  49.7513 310.3626 15.06401443106856
STARLINK-1373           
1 45544U 20025P   22087.84663543  .00040139  00000+0  27107-2 0  9994
2 45544  53.0542  99.3089 0002095 131.2323 228.8847 15.06228591107772
STARLINK-1374           
1 45545U 20025Q   22087.73231284  .00001325  00000+0  10783-3 0  9993
2 45545  53.0523  99.8118 0001949  55.8758 304.2416 15.06406130107734
STARLINK-1375           
1 45546U 20025R   22087.74337688  .00001596  00000+0  12601-3 0  9991
2 45546  53.0550  99.7585 0001567  66.4383 293.6771 15.06402571107752
STARLINK-1377           
1 45547U 20025S   22087.73969108  .00001357  00000+0  10995-3 0  9998
2 45547  53.0551  99.7728 0001432  58.6367 301.4762 15.06401524107765
STARLINK-1378           
1 45548U 20025T   22087.43375161  .00003145  00000+0  22988-3 0  9998
2 45548  53.0544 101.1637 0001679  57.2799 302.8352 15.06406629107707
STARLINK-1390           
1 45550U 20025V   22087.31854763  .00000659  00000+0  63152-4 0  9994
2 45550  53.0545 101.6838 0001536  67.3679 292.7472 15.06403421107684
STARLINK-1294           
1 45551U 20025W   22087.38767964  .00001518  00000+0  12077-3 0  9992
2 45551  53.0536  81.3578 0001499  60.3588 299.7550 15.06400687107988
STARLINK-1322           
1 45552U 20025X   22087.34957129  .00020684  00000+0  48252-3 0  9992
2 45552  53.0548  38.9369 0001637  40.7064 319.4063 15.42216950108576
STARLINK-1323           
1 45553U 20025Y   22087.66412766 -.00000110  00000+0  11512-4 0  9994
2 45553  53.0529  80.1231 0001673  51.2437 308.8701 15.06402221106739
